STARLINK-2022           
1 47643U 21012Z   23365.13948246  .00002155  00000+0  16350-3 0  9996
2 47643  53.0544  40.9409 0001419 102.4160 257.6988 15.06402347159239
